XRISM                   
1 57800U 23137A   23347.56970376  .00003312  00000+0  26098-3 0  9994
2 57800  31.0026 118.2829 0009958 159.3989 200.7049 14.98881883 14566
